GSAT0101 (PRN E11)      
1 37846U 11060A   24067.65745588 -.00000084  00000+0  00000+0 0  9994
2 37846  57.1267   4.2802 0003985 359.5237   0.4701  1.70475691 77076
GSAT0102 (PRN E12)      
1 37847U 11060B   24066.60248515 -.00000081  00000+0  00000+0 0  9994
2 37847  57.1277   4.3089 0005181 337.1783 141.2447  1.70475167 77051
GSAT0103 (PRN E19)      
1 38857U 12055A   24063.59067493  .00000017  00000+0  00000+0 0  9998
2 38857  55.3567 124.5073 0005488 265.8768  94.1312  1.70473492 70906
GSAT0104 (PRN E20)      
1 38858U 12055B   24063.55990415  .00000017  00000+0  00000+0 0  9994
2 38858  55.3568 124.5098 0002618 257.1454 102.8961  1.70473712 70871
GSAT0201 (PRN E18)      
1 40128U 14050A   24063.98385903 -.00000029  00000+0  00000+0 0  9995
2 40128  49.7623 307.2889 1606716 147.1537 223.9575  1.85519499 62822
GSAT0202 (PRN E14)      
1 40129U 14050B   24063.16457255 -.00000032  00000+0  00000+0 0  9990
2 40129  49.7805 306.3968 1605127 147.9279 222.9490  1.85520195 64977
GSAT0203 (PRN E26)      
1 40544U 15017A   24066.85008875 -.00000082  00000+0  00000+0 0  9999
2 40544  56.9222   4.2500 0004299 290.2626  69.6866  1.70475459 55011
GSAT0204 (PRN E22)      
1 40545U 15017B   24066.51756868 -.00000081  00000+0  00000+0 0  9994
2 40545  56.9284   4.2739 0003644 278.2514  81.7031  1.70475266 18057
GSAT0205 (PRN E24)      
1 40889U 15045A   24066.28608657  .00000066  00000+0  00000+0 0  9994
2 40889  55.2688 244.6107 0006035  43.4284 316.6117  1.70473484 52817
GSAT0206 (PRN E30)      
1 40890U 15045B   24067.09329763  .00000060  00000+0  00000+0 0  9998
2 40890  55.2672 244.5837 0004039  44.9767 315.0440  1.70473550 52855
GSAT0209 (PRN E09)      
1 41174U 15079A   24067.26349585  .00000023  00000+0  00000+0 0  9993
2 41174  55.3765 124.1145 0004422 303.1820  56.8564  1.70474630 51177
GSAT0208 (PRN E08)      
1 41175U 15079B   24067.48319960  .00000023  00000+0  00000+0 0  9992
2 41175  55.3753 124.1065 0004011 300.1821  59.8602  1.70474539 51172
GSAT0211 (PRN E02)      
1 41549U 16030A   24067.01902046  .00000061  00000+0  00000+0 0  9999
2 41549  55.4163 244.5858 0003715  19.4305 340.5722  1.70473572 48486
GSAT0210 (PRN E01)      
1 41550U 16030B   24065.55052393  .00000071  00000+0  00000+0 0  9990
2 41550  55.4159 244.6275 0001370   0.4807 359.5147  1.70473699 48435
GSAT0207 (PRN E07)      
1 41859U 16069A   24066.38403867  .00000019  00000+0  00000+0 0  9994
2 41859  55.0407 124.1655 0004497 291.0255  69.0025  1.70474672 45203
GSAT0212 (PRN E03)      
1 41860U 16069B   24066.23845027  .00000018  00000+0  00000+0 0  9997
2 41860  55.0377 124.1660 0003280 308.3285  51.7174  1.70474894 45457
GSAT0213 (PRN E04)      
1 41861U 16069C   24067.19261831  .00000022  00000+0  00000+0 0  9994
2 41861  55.0407 124.1460 0005141 271.8219  88.1993  1.70473428 45465
GSAT0214 (PRN E05)      
1 41862U 16069D   24066.75224517  .00000020  00000+0  00000+0 0  9994
2 41862  55.0393 124.1519 0004372 273.6507  86.3772  1.70474832 45454
GSAT0215 (PRN E21)      
1 43055U 17079A   24064.89529329  .00000072  00000+0  00000+0 0  9991
2 43055  55.3934 244.4678 0000992  21.7534 338.2469  1.70474286 38763
GSAT0216 (PRN E25)      
1 43056U 17079B   24066.36022850  .00000066  00000+0  00000+0 0  9996
2 43056  55.3914 244.4274 0001842 323.8040  36.1755  1.70474402 38804
GSAT0217 (PRN E27)      
1 43057U 17079C   24067.16723381  .00000060  00000+0  00000+0 0  9997
2 43057  55.3892 244.4039 0002294 353.2504   6.7337  1.70474310 38800
GSAT0218 (PRN E31)      
1 43058U 17079D   24066.80068206  .00000063  00000+0  00000+0 0  9999
2 43058  55.3921 244.4115 0002034 308.9868  50.9846  1.70474320 38796
GSAT0221 (PRN E15)      
1 43564U 18060A   24066.11405334 -.00000079  00000+0  00000+0 0  9991
2 43564  57.3024   4.2445 0005176 301.6614  58.2844  1.70475314 34970
GSAT0222 (PRN E33)      
1 43565U 18060B   24066.91899688 -.00000082  00000+0  00000+0 0  9993
2 43565  57.3055   4.2242 0003614 280.3795  79.5749  1.70475017 35025
GSAT0219 (PRN E36)      
1 43566U 18060C   24065.38129082 -.00000078  00000+0  00000+0 0  9993
2 43566  57.3053   4.2677 0004679 311.3910  48.5663  1.70475349 34974
GSAT0220 (PRN E13)      
1 43567U 18060D   24066.18837929 -.00000080  00000+0  00000+0 0  9992
2 43567  57.3053   4.2467 0005262 299.8259  60.1180  1.70475242 34962
GSAT0223 (PRN E34)      
1 49809U 21116A   24066.33282427 -.00000080  00000+0  00000+0 0  9997
2 49809  57.2961   4.1378 0001639 276.0423 262.9202  1.70475262 13986
GSAT0224 (PRN E10)      
1 49810U 21116B   24066.74393926 -.00000081  00000+0  00000+0 0  9992
2 49810  57.2968   4.1250 0001272 305.3980 238.3695  1.70475219 14011
